{"type": "FeatureCollection", "name": "Congestion Charge zone", "source": "TfL central ULEZ 2019 boundary (the Congestion Charge zone), London Datastore dataset v8onw, OGL v2; reprojected from EPSG:27700 to WGS84 via the Esri geometry service, 12 September 2026", "features": [{"type": "Feature", "properties": {"name": "Congestion Charge zone"}, "geometry": {"type": "Polygon", "coordinates": [[[-0.10468712327792178, 51.53107803889366], [-0.1044128485359999, 51.530881308640126], [-0.10437740150008715, 51.530901862353225], [-0.10432328551363232, 51.530868173414504], [-0.10431585905607102, 51.53087524575778], [-0.10400396968213672, 51.5306769174858], [-0.10399407419005512, 51.53065473171096], [-0.10368554672235815, 51.53045276996417], [-0.10356470124488527, 51.53036864634959], [-0.10354421821082131, 51.5303638206369], [-0.10345088639873365, 51.53030126829115], [-0.1034602955324407, 51.5302951273294], [-0.1033582048089006, 51.530223084484284], [-0.10333525603940699, 51.53023754687908], [-0.10324403680409841, 51.53017853478885], [-0.10313094351426799, 51.53010523471665], [-0.1030207281096511, 51.530034228357096], [-0.10291329336237082, 51.52996497548276], [-0.1028037918315316, 51.52989398047369], [-0.1026942906444264, 51.52982298537244], [-0.10262642283658166, 51.529779903396644], [-0.10235082578244807, 51.529863908187764], [-0.10223881166878045, 51.53002760391343], [-0.10209954955003073, 51.53024048484657], [-0.10176541352094799, 51.53075129027497], [-0.10086550664838549, 51.53051456965198], [-0.10086456795816671, 51.53050286753855], [-0.10085538826003818, 51.53049777372389], [-0.10059899461775998, 51.53042304730181], [-0.1000467381717142, 51.5302850886788], [-0.09910045653268693, 51.53003771158123], [-0.09906783880001561, 51.53005875876967], [-0.0987201458064323, 51.52996142017937], [-0.0984726932823565, 51.52989762182544], [-0.09830580552914078, 51.529834590501956], [-0.09773236092277558, 51.52968908589558], [-0.0967792349484008, 51.52944966993493], [-0.09680089081384828, 51.52941495997035], [-0.0966096898862216, 51.529367803767066], [-0.09654402281089026, 51.529351903989024], [-0.09593684421219198, 51.5292003582619], [-0.0948383271555576, 51.52892179559754], [-0.09411507138147594, 51.52873778771766], [-0.09378548535131993, 51.52865421451348], [-0.09327834108416566, 51.52852720606655], [-0.09281253259515732, 51.52840950008626], [-0.09263391245947443, 51.52837153215227], [-0.09248540821184698, 51.5283354020394], [-0.09250231907633029, 51.528363097712194], [-0.09207780273199367, 51.52825864604484], [-0.09182601485467176, 51.52819377407093], [-0.09175466220974968, 51.5281746325481], [-0.09136635095038764, 51.528048741963474], [-0.09130012491083994, 51.52802923400903], [-0.09064336812821391, 51.527858873923456], [-0.09062430436889572, 51.527868451741945], [-0.09011074816686597, 51.52773602232775], [-0.08977894500091496, 51.52765464913802], [-0.08950949351902271, 51.527577437811225], [-0.08903606664778921, 51.527440622789534], [-0.08887804375255257, 51.52737646468693], [-0.08878971680207216, 51.52733411961227], [-0.08879583838187234, 51.527327027081405], [-0.0886673168201498, 51.52724536975026], [-0.0886005233205978, 51.5271713707252], [-0.08849516516766381, 51.52705323084536], [-0.08841944546833772, 51.52696533096752], [-0.08839072193689904, 51.52696432388981], [-0.08830800042153784, 51.5268392707344], [-0.08829119339055984, 51.526812026707965], [-0.08821946409078402, 51.52669982883313], [-0.08814925930031668, 51.52658531858481], [-0.08812940792920301, 51.52655982251863], [-0.08800480024671704, 51.52629977411307], [-0.08801568487845424, 51.52629815401671], [-0.08792012951567366, 51.52606815629366], [-0.08702122090025559, 51.52569846931577], [-0.08676702929365407, 51.52565144015778], [-0.08594092979819155, 51.52592617638235], [-0.0855608095424199, 51.52601661316848], [-0.08523755738111509, 51.5260944913315], [-0.0851000746477818, 51.526124610139505], [-0.0850342264646077, 51.52611319557043], [-0.08502244493324167, 51.52610221549862], [-0.08501510760930556, 51.52608726132792], [-0.08474710564288337, 51.5261174937426], [-0.08474041243745496, 51.52610704637826], [-0.0845425188541066, 51.52613213057246], [-0.08440273490015895, 51.52613209284212], [-0.08426395953846785, 51.52612218220487], [-0.08409522139555484, 51.526106837360174], [-0.08395584019395846, 51.526083072263745], [-0.08381285982487097, 51.52605727066989], [-0.08370165748969123, 51.52601634496011], [-0.08351286823567165, 51.52593504392463], [-0.0821972541054481, 51.52526830169], [-0.08182507370192778, 51.525085015700974], [-0.08130383597060745, 51.524814330613175], [-0.08085937941340798, 51.52456647768582], [-0.08045168760668939, 51.524320663206666], [-0.08048103823550311, 51.523933849710595], [-0.08050566945808488, 51.523645041207565], [-0.0805169769062279, 51.52352601757977], [-0.08012807818220775, 51.52361341358332], [-0.07992687781547075, 51.52362971577946], [-0.07947455822000835, 51.52365943272402], [-0.07943103661400502, 51.52365988850258], [-0.07939447139699295, 51.5236645031864], [-0.07932213632795496, 51.52362097467391], [-0.07880039421895448, 51.52330936501351], [-0.07854621200686937, 51.523150028735245], [-0.0784212216003462, 51.5230755188664], [-0.07841102009572289, 51.523069417310005], [-0.0784019752985464, 51.52306405503453], [-0.07797790586010502, 51.522798544458674], [-0.07750828643313652, 51.52268610679998], [-0.07747978922414862, 51.52267979583558], [-0.07730402387950028, 51.522541071278546], [-0.07703639835076198, 51.52235687744141], [-0.07664623288828322, 51.52207124143723], [-0.07616491814083462, 51.52169240837923], [-0.07571818239585479, 51.52134776389947], [-0.0750715815170321, 51.52076842943358], [-0.07493575967148482, 51.52062136827593], [-0.07466802997668896, 51.520304922469194], [-0.07460302938790721, 51.52010472299458], [-0.07460320803672772, 51.520049796759444], [-0.07460235591307403, 51.519884094176675], [-0.07460232402485423, 51.5198313218277], [-0.0745846632973644, 51.51982455871094], [-0.07460129949402085, 51.519672539881846], [-0.07460918087420013, 51.51960686174056], [-0.07461147819989337, 51.51955241904751], [-0.07462555635142248, 51.51940188603813], [-0.07464610283088216, 51.51940222362148], [-0.07465135421515175, 51.51933973873444], [-0.07463341928337487, 51.51933944406035], [-0.07465005513567562, 51.519187424309074], [-0.0746750440528312, 51.5190289798232], [-0.07463330251655988, 51.519009864376876], [-0.07462702670279152, 51.51869951238128], [-0.07462548686884281, 51.51839238382954], [-0.07446019280319979, 51.51829617081005], [-0.0738417266112256, 51.51754719817561], [-0.07341880162558381, 51.51703401255695], [-0.07343219154953015, 51.517006812150505], [-0.07338175984736213, 51.516886773957275], [-0.07315633034515448, 51.51661066680541], [-0.07296980247986798, 51.51640118648877], [-0.07260215758795736, 51.515961186486884], [-0.07252120680953683, 51.515863210424094], [-0.07250063525124868, 51.5158044365684], [-0.07242354808499506, 51.51571911107382], [-0.07233767097721197, 51.51561961591337], [-0.07226060617330092, 51.51556755378867], [-0.07213545830057204, 51.51542434998229], [-0.07216961461914904, 51.515299409731476], [-0.07259471968168336, 51.51511311514634], [-0.07272347942176068, 51.515066685771046], [-0.07345560726396984, 51.514813875006816], [-0.07383115671371568, 51.51468088198972], [-0.0739466150551655, 51.514504684617755], [-0.07397021706471324, 51.514401596181855], [-0.07395375988114596, 51.51424247044817], [-0.07365318245632876, 51.513905704278855], [-0.07353492292605006, 51.51359935348344], [-0.07346907763061879, 51.513436359104865], [-0.07343497046902168, 51.51330409298508], [-0.07340581126612271, 51.51319258513245], [-0.07341709147265431, 51.51318153330128], [-0.07337797205700848, 51.513032912451216], [-0.07338742821530378, 51.513031269378686], [-0.07337705603784764, 51.51298704717421], [-0.07338606037695104, 51.51297640756327], [-0.07335342330375512, 51.51284596322273], [-0.07337593048749462, 51.51282511677269], [-0.07334034490223419, 51.512727887974066], [-0.07333994449751989, 51.51270360827465], [-0.07332998052605973, 51.512666584243604], [-0.07336774090799524, 51.51264472959944], [-0.07336096076304222, 51.51261674882556], [-0.07333624067665172, 51.51260555474285], [-0.07331144763859945, 51.51250886218562], [-0.0733266117508112, 51.512490232216436], [-0.07332062472345154, 51.51246316375044], [-0.07330499759761196, 51.51245616408289], [-0.07325806769594823, 51.51227019573881], [-0.07324605178693135, 51.51218045687678], [-0.07318490262005126, 51.51183593806399], [-0.0731957653721301, 51.51171654782148], [-0.07311873480570132, 51.51168066917561], [-0.07311484906956786, 51.511567239594434], [-0.07311931707612854, 51.51136009046713], [-0.07317484930517927, 51.51133942737691], [-0.07339409829259287, 51.51133628950139], [-0.0736998076514466, 51.5113314259602], [-0.07426945099326335, 51.511323258157034], [-0.07427015515666728, 51.511340350481326], [-0.07439649556421728, 51.51135096789565], [-0.07439193241322524, 51.51132392197782], [-0.07443750243571162, 51.51131972660192], [-0.07459556925497424, 51.511364127360004], [-0.07471902893078133, 51.51135851471353], [-0.07471811618329147, 51.51134636315665], [-0.07491628420735416, 51.51133028988314], [-0.07515142442877289, 51.51126025312243], [-0.07529625299019357, 51.51108606641192], [-0.07506034705637314, 51.51020223678395], [-0.07470865792784416, 51.5097085641071], [-0.07464411722994294, 51.5096836802142], [-0.07454297792817548, 51.50962223398088], [-0.07448859542554885, 51.50957908634885], [-0.07419998753837709, 51.509364783849634], [-0.07406905954092602, 51.50925744704594], [-0.07403797059924007, 51.509225470590366], [-0.07402153841836864, 51.50918969009706], [-0.07402982768454769, 51.50914532499849], [-0.07414660327555286, 51.50859956462942], [-0.07445838574375732, 51.507101087490085], [-0.07522038875539812, 51.505981476607275], [-0.07532934954619003, 51.50580651970806], [-0.0756691967990357, 51.50529813443888], [-0.07579272398843578, 51.50511856197167], [-0.07624153571475867, 51.504437554605175], [-0.07669293976743913, 51.50376234139277], [-0.07708552487018847, 51.503163207218925], [-0.07720420523418671, 51.50299973596674], [-0.07725514672848734, 51.5029580478461], [-0.07729791535240281, 51.5029326778106], [-0.07738585259052634, 51.5029152411616], [-0.07747299387757625, 51.50291667072029], [-0.07780706399783906, 51.50299308340313], [-0.07821620003422283, 51.50308969449205], [-0.07828044823373549, 51.50300561117984], [-0.07831621295288815, 51.5029660118299], [-0.07846408626964813, 51.50287377002876], [-0.0777887793876693, 51.502436922281696], [-0.0776746467860046, 51.502357015834605], [-0.07773089937762087, 51.50228224133051], [-0.07775409543120933, 51.502273092203225], [-0.0778072241012588, 51.50217938708464], [-0.07788245651039467, 51.50201502258505], [-0.0780454348552731, 51.50168523874598], [-0.07816071464598416, 51.50146408342416], [-0.07875899859007596, 51.50012006336522], [-0.0790979119717003, 51.49941152811968], [-0.07936967710033732, 51.49884186728388], [-0.07952324597917362, 51.498512106190326], [-0.07968040697203256, 51.49816748016602], [-0.07981918233068983, 51.49786453631507], [-0.07988469451441503, 51.49777274027198], [-0.07992194522972487, 51.497765439564425], [-0.07998254873432595, 51.497680215899166], [-0.08007315836594191, 51.497598900964846], [-0.08022112545060696, 51.497506747583984], [-0.08057629031192678, 51.497351729342654], [-0.08081566626631972, 51.4972467779976], [-0.08144589820981576, 51.496971206898316], [-0.08184617947585132, 51.496802358323755], [-0.08206204925392441, 51.49671958519972], [-0.08216987077570313, 51.49667522990458], [-0.0826155154171421, 51.496464147823005], [-0.08267985943733784, 51.49638581647796], [-0.08278769787970296, 51.49625614353354], [-0.08282316865419735, 51.496217616746144], [-0.08289549768750921, 51.496141483307404], [-0.08293678614273711, 51.496103051630655], [-0.08304689141050886, 51.49600137497532], [-0.08316688108523154, 51.495887812194766], [-0.08325104542687708, 51.49582400962127], [-0.0834876150988246, 51.49566101917895], [-0.08375094840944124, 51.495480125826404], [-0.08423945587727223, 51.49516706961339], [-0.08434715036711234, 51.49510859587289], [-0.08475803266666167, 51.49487607980858], [-0.08566070564070984, 51.495042304177225], [-0.08581504414197372, 51.495004546305374], [-0.08602133751061593, 51.49494012713901], [-0.08615932128385183, 51.49488726829318], [-0.08637012250019135, 51.494797479652156], [-0.08654904159826847, 51.49466060126732], [-0.08666310302072235, 51.49441882646628], [-0.08673103072126405, 51.49437947871573], [-0.08704963799226859, 51.49437298886788], [-0.08705162174332236, 51.494393698370146], [-0.08722613694893291, 51.494390251570124], [-0.08722846509274955, 51.494368713116195], [-0.08861914933911663, 51.49434059109837], [-0.0890982805758643, 51.49435559118737], [-0.08953891420315505, 51.49432546046985], [-0.09014931170275199, 51.494317421841046], [-0.09026151165891505, 51.49431007804992], [-0.09060285984030747, 51.494302241122334], [-0.09068887534448491, 51.49430184291275], [-0.09080206239248098, 51.49429928085425], [-0.09105166450250562, 51.494292555175036], [-0.09114394023225883, 51.49428731429202], [-0.09253522468251184, 51.4942617635426], [-0.09253839085484891, 51.494288335661054], [-0.0927028538648773, 51.494283817947725], [-0.09318406780916794, 51.49426602142235], [-0.09356104934074391, 51.49425821476303], [-0.09439327202158011, 51.4942685932674], [-0.09447680103441569, 51.49427084971171], [-0.09456229644962424, 51.49427718299649], [-0.09472478560919857, 51.49430005116336], [-0.09496295936226729, 51.49433952075217], [-0.09549729137041023, 51.494449338822584], [-0.0956795119902771, 51.49448331379682], [-0.09669868285663472, 51.49469368713793], [-0.09693364068596232, 51.49474200152456], [-0.09718187581451397, 51.494799520022646], [-0.0982732038050286, 51.49502318677439], [-0.09933225099728285, 51.49524353232095], [-0.0993324119128746, 51.495293880028164], [-0.09969545250566944, 51.4952930200225], [-0.09979724684140491, 51.49546152735621], [-0.09987769413869486, 51.49556361081743], [-0.10002356019605067, 51.49564643664935], [-0.1001577411163826, 51.49568466045192], [-0.10031575275240172, 51.49572111272683], [-0.10049865026714914, 51.4957304580719], [-0.10071602676560919, 51.495727595356136], [-0.10080763737847516, 51.49572692147802], [-0.100909983707115, 51.49571374516708], [-0.10102703470082328, 51.495675454463004], [-0.10114493861105275, 51.495613802571484], [-0.10122241951083188, 51.495547270445826], [-0.10126590024776551, 51.49541285185266], [-0.10129531882353163, 51.49534239591641], [-0.10132076098095918, 51.495278977182934], [-0.10135018311873016, 51.49520843136389], [-0.10136910719624474, 51.495118925219124], [-0.10136900367891155, 51.49503855164618], [-0.10135185758769899, 51.49496239676033], [-0.10133446132674787, 51.49489226117155], [-0.10108171357522096, 51.494783164350956], [-0.10100031899859833, 51.49474669466164], [-0.10100895399095368, 51.494661877156254], [-0.10097249020406764, 51.49427327063107], [-0.10088958743788497, 51.49427597318312], [-0.10086636475622868, 51.4938974703363], [-0.10095077282665824, 51.493895690561345], [-0.10095142979315412, 51.493791324893834], [-0.10097675082297769, 51.493582263762185], [-0.10098976632604406, 51.49335493241045], [-0.10103087455442401, 51.49323467953341], [-0.10098919754697218, 51.49316289261844], [-0.10104914097487562, 51.493035303564945], [-0.1011154290324417, 51.49289792786765], [-0.1011422572056423, 51.49287543699199], [-0.1012055623040352, 51.49282692620661], [-0.10156466019641816, 51.492591802811354], [-0.10194672533521773, 51.49234122723768], [-0.1023819188076916, 51.49204386159223], [-0.10265276773404408, 51.491868351435095], [-0.10310608826866129, 51.491546015603376], [-0.10318045340993368, 51.49151134729838], [-0.10319796605918072, 51.49152151984017], [-0.10326180852091474, 51.4914771517043], [-0.1034270991826479, 51.49139801440514], [-0.10362433810353765, 51.491333238678465], [-0.10385779531113747, 51.491277228883064], [-0.10406950833411004, 51.49122716021833], [-0.1041173954077427, 51.49121804505548], [-0.10453327935369573, 51.49112497689909], [-0.10454541571618237, 51.491144502009234], [-0.10511850998750502, 51.49102097821622], [-0.10536903569201725, 51.49099724630906], [-0.10576266196694738, 51.49091091579389], [-0.10593394233843195, 51.49087340642572], [-0.10610924627494056, 51.490819059962256], [-0.10629563475604566, 51.490743675693096], [-0.10680758573786304, 51.490510375927], [-0.10707082138420636, 51.4903832790974], [-0.1074145751528764, 51.49019607878192], [-0.10780314638178407, 51.48999926075054], [-0.10787980442037753, 51.48997217857671], [-0.10789107610115983, 51.48997820390086], [-0.10800962721093503, 51.489934716747975], [-0.10809124086062664, 51.48991131057327], [-0.10839200867798417, 51.489812685612975], [-0.10998099531565292, 51.48935679175604], [-0.11013923347680128, 51.48930989622905], [-0.11083672373964813, 51.48911247224037], [-0.11110263026041504, 51.48903809151966], [-0.11113097957260004, 51.488834921494515], [-0.11141358099998099, 51.488773215322794], [-0.11142802409992161, 51.48865936268434], [-0.11145236673383878, 51.48852436301085], [-0.11145762425263775, 51.4885006241641], [-0.11148103871541461, 51.488491561557396], [-0.11150498365997819, 51.48840069712748], [-0.11155659592707463, 51.48830991850205], [-0.11165615138988269, 51.488191323080216], [-0.11197103244608847, 51.48780523200436], [-0.11196748229530111, 51.4877876435439], [-0.11215358820614185, 51.48758917116203], [-0.11227500549856581, 51.487490435948054], [-0.11233691807602642, 51.48745502189155], [-0.11257810477183856, 51.48732036556545], [-0.11271312632912173, 51.48725736019873], [-0.11295422194833642, 51.48715650437356], [-0.11308666954098033, 51.487106942645056], [-0.11312037191072008, 51.487127712223355], [-0.11318226239779863, 51.487112975227404], [-0.11322286735588803, 51.48710463848816], [-0.11349464779436477, 51.487063071422284], [-0.11368397750655172, 51.4870481368294], [-0.11407831868303281, 51.48703829659514], [-0.11461977551367658, 51.487026324791515], [-0.11494479228182329, 51.48701851457135], [-0.11538403296494718, 51.487011369144035], [-0.11549410818430417, 51.487006035565734], [-0.11579304934163262, 51.48700562494297], [-0.11588990893134146, 51.48699819109114], [-0.11594773034276251, 51.48699282692133], [-0.11617410223805695, 51.48696949248341], [-0.1164367503377704, 51.48693909914232], [-0.11668752450355724, 51.48689997415095], [-0.11720730938282195, 51.48682012687727], [-0.1174790640040369, 51.486779089751], [-0.1180681475930128, 51.486691899704326], [-0.11826110846365447, 51.48664060631248], [-0.11909414897183943, 51.48652397242707], [-0.1193710882992646, 51.48647806905647], [-0.11976243311597155, 51.486419615514926], [-0.1200449093765266, 51.48638054206663], [-0.12048107325682202, 51.48633538990144], [-0.12089299277804189, 51.48629928818989], [-0.12133440179716601, 51.48626806207766], [-0.12185210587748173, 51.486287591653706], [-0.1226794077201765, 51.486321875690166], [-0.12300370861843017, 51.48635448636447], [-0.12352610567257459, 51.4864449263996], [-0.12401028987566667, 51.48660991026446], [-0.12421862317742755, 51.486655585793564], [-0.12432061987495284, 51.486699471212575], [-0.12494413816712735, 51.486878456466606], [-0.12521088725935053, 51.486924525535784], [-0.12525214727715184, 51.48693777132043], [-0.12548433869014328, 51.48703596927715], [-0.1265988275908832, 51.48753663769736], [-0.12687405207878463, 51.487660063168704], [-0.1271892761959085, 51.487801478181666], [-0.1277585416161105, 51.4880587851028], [-0.12836054290657828, 51.48832605130146], [-0.12851950919566893, 51.48840005948204], [-0.12885800263977415, 51.48857672214745], [-0.12958546837458346, 51.48885767150301], [-0.12969163740400869, 51.488904314733624], [-0.1299409617361368, 51.48902255549917], [-0.13024319874107015, 51.48917121631698], [-0.13062766262405606, 51.48935094479328], [-0.13078635518785758, 51.489449219469485], [-0.13111222340363468, 51.48960104148811], [-0.13112187612898993, 51.4895944525885], [-0.13133598060278195, 51.48969405825579], [-0.13205592388113246, 51.49003780306108], [-0.13227388911325635, 51.49013027612288], [-0.13247404920990305, 51.49022246614348], [-0.13258635575300703, 51.49027603709141], [-0.13306824163419717, 51.490504866503194], [-0.13312123499516118, 51.49054796405276], [-0.13340578855998775, 51.49068518683623], [-0.13342001535868156, 51.490674176003004], [-0.13361274907429765, 51.490768043486995], [-0.1340396151074085, 51.49098619388423], [-0.13419575088404376, 51.491060149201694], [-0.1345435537097651, 51.491222199742566], [-0.13455618217331025, 51.491212511353396], [-0.13481767682812976, 51.49133578940448], [-0.1349906221905189, 51.491419901152234], [-0.13550861170930154, 51.49166691483791], [-0.13573891109740685, 51.49179508870308], [-0.13575161419571705, 51.491783603735946], [-0.13631673132447145, 51.49205473673874], [-0.1364220737758901, 51.492104508099246], [-0.13691946847641062, 51.492341299700385], [-0.1371399970242475, 51.492444143698364], [-0.13743129776126314, 51.49258245450577], [-0.13751374530103888, 51.49264031195076], [-0.1378380610763256, 51.49279335005039], [-0.13809958590510094, 51.49291626204902], [-0.13911386274539986, 51.49340802957655], [-0.13983676421481353, 51.49375177356141], [-0.14023110933196994, 51.49392101893635], [-0.14044252015904513, 51.49405275043702], [-0.1406012523479698, 51.49417132993386], [-0.14076574122337185, 51.49432362335706], [-0.1410609054561666, 51.49460978430785], [-0.14137553108526446, 51.49491692986922], [-0.14139303542542764, 51.494910014896384], [-0.14150098026508473, 51.49501870831247], [-0.14167391614346625, 51.495211679743875], [-0.14176627674696196, 51.495309338301354], [-0.141813229956935, 51.495366900037126], [-0.14183883463746816, 51.49538861216507], [-0.1418596799938746, 51.495433893437855], [-0.14184403066804654, 51.495447759566574], [-0.14190110657768745, 51.495533890543605], [-0.14194142761284534, 51.495567612666605], [-0.1420330471768689, 51.495733134501336], [-0.14201848323177288, 51.49573784887219], [-0.1423513259844701, 51.49628666551045], [-0.14239654025496962, 51.4963607406559], [-0.14238626632838927, 51.49638260378886], [-0.14216002249020923, 51.49645453732354], [-0.14162338033974323, 51.49648873887557], [-0.14152718970765601, 51.496502677620086], [-0.14158208774191136, 51.49661313729396], [-0.14168177382010916, 51.49666802839263], [-0.1416013308417158, 51.49678245674105], [-0.14163349156909688, 51.496870800012665], [-0.1416791941309913, 51.49699414976746], [-0.14162158084745713, 51.49699710283826], [-0.14164572382792176, 51.49707228321502], [-0.14170291477078342, 51.497143941405646], [-0.14188389136484772, 51.49753949823802], [-0.14194762939662658, 51.49765171645583], [-0.14201336603071074, 51.49771191286332], [-0.14211278929539237, 51.497782082528886], [-0.14239624751475333, 51.49789535379316], [-0.1425803530796612, 51.49793378009412], [-0.14290418109353542, 51.49798619637642], [-0.14315715496235504, 51.498045851422596], [-0.14355643650639474, 51.49811240638387], [-0.143659727137799, 51.49814011208987], [-0.14413171795821791, 51.49822399828946], [-0.14434761486084483, 51.49824899065164], [-0.144697100294456, 51.49829866135928], [-0.14503657136039994, 51.49834628506147], [-0.146744924713156, 51.49830487667718], [-0.1468693262315689, 51.4983276101263], [-0.14696571712366235, 51.49836734134675], [-0.14702031991029144, 51.49840641137247], [-0.14711761081342892, 51.4985117845828], [-0.14740579622661443, 51.49884861322464], [-0.14760480192707245, 51.499090983276886], [-0.14825096950998035, 51.49983676011268], [-0.1485928468932704, 51.50005980876853], [-0.1487598975984326, 51.50016763064787], [-0.14892621596310868, 51.500275979388334], [-0.14918482739723063, 51.5004373881055], [-0.14974518694420755, 51.50079513685157], [-0.15051146328655174, 51.50128118286174], [-0.15070951313744382, 51.50140702119625], [-0.15085067057117282, 51.50149735018147], [-0.15093919154834737, 51.5015703070753], [-0.15100513012046876, 51.50163472722452], [-0.15105525920905694, 51.5016935033814], [-0.15109072132286527, 51.50174485683434], [-0.15112010109553126, 51.50179971057837], [-0.15113201396063933, 51.50182821730976], [-0.15078615648565216, 51.501987373596215], [-0.15054374442714005, 51.502085589760675], [-0.15033009396470565, 51.50216591839041], [-0.15009372366646098, 51.50223815725236], [-0.14987605351765682, 51.50229450824757], [-0.14967935392245812, 51.50235226880296], [-0.14958306708059094, 51.50240936510595], [-0.14947858433813985, 51.50251335039843], [-0.14944923874275642, 51.502627691908756], [-0.14952446864574057, 51.502650455076044], [-0.14956759948112897, 51.50268844451401], [-0.1495821064082727, 51.50272328542767], [-0.14955730553837232, 51.50291896936892], [-0.14956139488194983, 51.50309946539118], [-0.14965168331820225, 51.503210929119064], [-0.14973344658446872, 51.50328654644174], [-0.14973439501440125, 51.50328621878161], [-0.1497342933550659, 51.50328613174714], [-0.14987363295733125, 51.503236726071584], [-0.14998300471007867, 51.50320267110753], [-0.15016339194918998, 51.503160565351465], [-0.15027632784847628, 51.50313825325181], [-0.1505179985532906, 51.50309954056812], [-0.15065736039219194, 51.503081779655105], [-0.15078712458581164, 51.50307222867403], [-0.15091278697471322, 51.50306423067044], [-0.1520869208261288, 51.50308183716884], [-0.15227913534420914, 51.50307911097864], [-0.15240739317526075, 51.503074479536124], [-0.15253442904312492, 51.50306479279072], [-0.15264816436396914, 51.503054987244404], [-0.15275811957401836, 51.50304170572425], [-0.15286281423748632, 51.50302339616621], [-0.15297179761947638, 51.50300182855072], [-0.15323692766472688, 51.5029410941167], [-0.1533744186399572, 51.50290496077275], [-0.15345940084982543, 51.50288049776326], [-0.15354698020776017, 51.502859401081245], [-0.153620939748543, 51.502843124044205], [-0.1536788595178799, 51.502829831841176], [-0.1537258207207475, 51.502823108937775], [-0.15399031083530373, 51.50277818629804], [-0.155291692865242, 51.50257480721495], [-0.15531085817083887, 51.502626802297584], [-0.15389783469865556, 51.502855754155746], [-0.153870884061071, 51.5028611734117], [-0.15369779056639685, 51.50288757704013], [-0.15364945421501386, 51.50289598599958], [-0.15360636208477416, 51.50290690462661], [-0.1534081720153564, 51.50296042232876], [-0.15324780417290781, 51.50300113969816], [-0.15301230078214736, 51.503054878558906], [-0.15291273004674172, 51.5030757860016], [-0.15279728153318714, 51.503095633954736], [-0.15266982440869567, 51.50311277559754], [-0.1525078175714928, 51.503129372890164], [-0.15237812043859367, 51.50313730817203], [-0.15217637099444697, 51.50314662613925], [-0.15206300623079474, 51.50314726810518], [-0.15181252290048972, 51.503142512001816], [-0.15144467135552542, 51.503137524265085], [-0.15112357804897128, 51.503130844387144], [-0.15091151485886245, 51.50313082768887], [-0.15086869111090886, 51.50313509763074], [-0.15064119586310765, 51.503152367525395], [-0.15053266760134212, 51.503165579615285], [-0.15031918837262806, 51.503200511257205], [-0.15023453736316886, 51.50321670661403], [-0.1500380573322452, 51.50326017733724], [-0.14992495353824276, 51.503286622307215], [-0.1497891733993679, 51.50333320652835], [-0.1497890926113007, 51.5033331378086], [-0.1497887780235854, 51.50333325604605], [-0.1497889285168123, 51.503333382519465], [-0.14988409180934828, 51.503409591510525], [-0.1500390624001763, 51.50341716090177], [-0.15065795809388513, 51.50342485276001], [-0.1507154968764187, 51.50343861597226], [-0.1507480502564299, 51.50346205434993], [-0.15081422275611497, 51.50360873724586], [-0.15087997430676742, 51.50381573833299], [-0.15092491429966579, 51.50402321971848], [-0.15092671351094583, 51.50410200170321], [-0.15090409300306465, 51.504235148989565], [-0.1508840121322379, 51.50430270754527], [-0.15084030957815303, 51.50444010692425], [-0.1507669299967749, 51.50466783862563], [-0.15072776546055064, 51.504833988142785], [-0.15071684023446286, 51.50494529394952], [-0.15072253714848982, 51.50524754133952], [-0.15076340844157113, 51.50537953228239], [-0.15082707052481217, 51.50551493824881], [-0.15094220433174274, 51.505696646126374], [-0.150994653414944, 51.505733432994234], [-0.15107240672389377, 51.505790846918785], [-0.15136646182335234, 51.50605493764263], [-0.15153394951038832, 51.506205465029495], [-0.15180947347153478, 51.50644903341309], [-0.15230917327756122, 51.50686649676661], [-0.15313400034135186, 51.50756480468512], [-0.1535477956141718, 51.50791528117776], [-0.1536763743400364, 51.508049909733835], [-0.15405055958941943, 51.508454601023544], [-0.15415122719288615, 51.50856550497902], [-0.15442698342476185, 51.50882165767703], [-0.15448807687246494, 51.50887700945878], [-0.1545432929544267, 51.50893073997745], [-0.15453660983539746, 51.50895499783668], [-0.1545213025363103, 51.50897210840082], [-0.1544887761290962, 51.508986070375684], [-0.1542445623006143, 51.50903410111225], [-0.15429834773171355, 51.509135007391755], [-0.15472454350466353, 51.5090528904428], [-0.15479097778520193, 51.509190675781255], [-0.1548686788190648, 51.50917616538615], [-0.15496362383443274, 51.509234745427214], [-0.15555382587188935, 51.50964283034687], [-0.15585614532420583, 51.509847703665876], [-0.15592280557449548, 51.50998000722929], [-0.1561592618895765, 51.510085852678685], [-0.15617733767356193, 51.51008254064491], [-0.15626734778915777, 51.51015452746639], [-0.15633111794187124, 51.51019958143024], [-0.15653589351180708, 51.51037496051374], [-0.1565720761218807, 51.5104264134081], [-0.15660764913230976, 51.510472372967484], [-0.15669678789003794, 51.51061896439695], [-0.1567512577138415, 51.510735433096], [-0.15677032418068557, 51.51074292416861], [-0.15679805988751067, 51.51078876050707], [-0.1567544728235837, 51.51079706555936], [-0.15684776086148172, 51.51098507674453], [-0.15695172980553573, 51.51112344966421], [-0.15694733037535102, 51.51113821487686], [-0.156979237059497, 51.51113080444748], [-0.15714991164466238, 51.511479965347306], [-0.1571375721840595, 51.511482468388515], [-0.15717594123404288, 51.51156515106538], [-0.15723417249050375, 51.511553209962145], [-0.1572848707765437, 51.511654246130085], [-0.15722595694229902, 51.51166545712044], [-0.15745619903678215, 51.512102127728674], [-0.15750348671175277, 51.51209343090512], [-0.15761051535400003, 51.51229738995278], [-0.15776183255918666, 51.51258169629836], [-0.1577262544788863, 51.51258877950103], [-0.15778421993554054, 51.51270710019583], [-0.1578450396248461, 51.51282537665597], [-0.15808186233158097, 51.51329361464016], [-0.15817310782702557, 51.513358787564634], [-0.15828790068922508, 51.513405809703045], [-0.15846986990121747, 51.51348139679991], [-0.15866132785287942, 51.513522070988266], [-0.1591934207514076, 51.51346389552007], [-0.15951940100284703, 51.513424870191876], [-0.1596143782988179, 51.51341817885503], [-0.15961783080328526, 51.51341211979802], [-0.1599984364695128, 51.513365139154836], [-0.16007674016979292, 51.5134478177568], [-0.16011847674529264, 51.51346483460513], [-0.16044651435891216, 51.5136695595321], [-0.1604667640155982, 51.51365360484021], [-0.16055595497884606, 51.5137079560414], [-0.160532414443695, 51.51372592655895], [-0.1606822019622291, 51.513815838943074], [-0.16076198129836963, 51.51386195078864], [-0.16111652518054825, 51.51405486295765], [-0.16124707971818758, 51.514138449791936], [-0.16150442709719434, 51.51431356574005], [-0.16189919473358466, 51.51456419325035], [-0.16222071763493384, 51.514768810998575], [-0.1625069097978981, 51.51495669297301], [-0.16278089973482543, 51.515125952621894], [-0.16295900263821825, 51.51524480420092], [-0.16308579594747036, 51.515336421638054], [-0.16390249199506665, 51.51589310938535], [-0.1640755203184593, 51.51604667154479], [-0.16459257015946777, 51.51639557713463], [-0.16485290569537936, 51.51653540096546], [-0.16531358397886645, 51.516850158366815], [-0.16549046855824615, 51.51699964295091], [-0.16553574548141073, 51.51700853256525], [-0.16584423563534545, 51.517212936286775], [-0.16589534872272862, 51.51724223415558], [-0.1662572595047594, 51.51749844606764], [-0.16651829447580915, 51.517665517638235], [-0.16665463027891161, 51.51776545998324], [-0.16707465100922037, 51.51807822681253], [-0.1670768574626182, 51.51813274156917], [-0.16678160651493126, 51.518358723168035], [-0.166835354730126, 51.51838752223119], [-0.16688959323306551, 51.518418936804494], [-0.1666068877514275, 51.51862839215198], [-0.16633724347085327, 51.51883805189526], [-0.16587911913363104, 51.51918941485902], [-0.16583402012231716, 51.519255866049924], [-0.16580071839429067, 51.519351089379064], [-0.1657941566720063, 51.519434505281104], [-0.16564346961873938, 51.51990430902312], [-0.16557991107385545, 51.52006927209046], [-0.16548771018474248, 51.52021940252709], [-0.1653486451570862, 51.52035567515555], [-0.16526677497978354, 51.52047351335498], [-0.16516405573555457, 51.52055416624818], [-0.16515876689329453, 51.52055857895737], [-0.16513155818579048, 51.520555456470014], [-0.16508173988660302, 51.52052051497503], [-0.16472890217521322, 51.520711968007994], [-0.16424448340112296, 51.52080327880156], [-0.16372380998841005, 51.520882873680485], [-0.16351174231537602, 51.52092225644318], [-0.16308294276474192, 51.520992857082476], [-0.16292059720469415, 51.521016386331986], [-0.16277050514556468, 51.52101897989237], [-0.16168454073412541, 51.52121152654785], [-0.16151453138105126, 51.52124527173324], [-0.16119367935524806, 51.52130317347028], [-0.1611573834943579, 51.52128956874504], [-0.1609277276719682, 51.52133766202505], [-0.16029621201659505, 51.52144822650845], [-0.16020735476600675, 51.52147074715582], [-0.16021138623508605, 51.5214798003576], [-0.15998124152676238, 51.521519342886876], [-0.15997798550567852, 51.52151165074107], [-0.15988371973744123, 51.52152680314393], [-0.1598809681129705, 51.521521366176245], [-0.15968574029290095, 51.52155561240258], [-0.15952136515317694, 51.52119918358237], [-0.15923358009076807, 51.520561135958175], [-0.159185030728092, 51.520444760690886], [-0.1589214440899231, 51.520491418303045], [-0.15856571808363149, 51.52055649740169], [-0.15833777822163558, 51.52059741930207], [-0.15784782286036853, 51.5206901464668], [-0.15730167098379425, 51.52078531433952], [-0.15729296359904574, 51.52076845567764], [-0.1571091810551884, 51.52080476495907], [-0.15676165620424815, 51.52086088754624], [-0.156892651684061, 51.521151617928325], [-0.1570376972572172, 51.52146819080902], [-0.1572775506387242, 51.52195346890506], [-0.15729872620468793, 51.522026530696415], [-0.15693686101920115, 51.52209024951705], [-0.1566095537679839, 51.522145790083286], [-0.15627532409083564, 51.522175599008484], [-0.15596979641233355, 51.522227434299374], [-0.1559477659268873, 51.52218438446484], [-0.1551714885910725, 51.52232959577266], [-0.15435087101123807, 51.522480757136655], [-0.1541253230721032, 51.52256800825431], [-0.1535131418984065, 51.522681628348835], [-0.15314823067148267, 51.52274106192782], [-0.15280183843375172, 51.522803932526855], [-0.15259437240389048, 51.52287303585253], [-0.15224583833691402, 51.522935961914364], [-0.15199497375259474, 51.5229203224171], [-0.15127589703318448, 51.52298495899823], [-0.15097274987072254, 51.52301299558019], [-0.15080723721380004, 51.52302342250014], [-0.150806396658683, 51.52302655578991], [-0.15062790074435595, 51.523037676169636], [-0.1503166202930119, 51.52305524395612], [-0.1502911199295285, 51.523059786059804], [-0.15015684704549068, 51.52308239242348], [-0.1501502121368343, 51.52307015037507], [-0.15000217141154423, 51.523095236367084], [-0.14990872965996424, 51.52310455038352], [-0.1499051473593991, 51.523104943522156], [-0.1498928772219439, 51.52310564928056], [-0.1498792173197725, 51.52310543385134], [-0.14986696540374525, 51.523105690260216], [-0.14984880089252814, 51.523108100690735], [-0.14983214571397774, 51.52311143419117], [-0.14983010690216209, 51.52310600732507], [-0.14974660718296934, 51.52312222162608], [-0.1497156051608103, 51.5231217326548], [-0.149165047633345, 51.523172022693615], [-0.149028982323684, 51.523186058242125], [-0.14874432533498344, 51.523203592303084], [-0.1484735664153097, 51.52325056316676], [-0.14836806524203708, 51.52327586796769], [-0.14835798968139144, 51.52329279054502], [-0.1479812340196665, 51.523359662445706], [-0.14790854319464325, 51.52326771477663], [-0.1478345545200008, 51.52319013127103], [-0.14770667070548846, 51.52309047940002], [-0.14756450381988034, 51.523005974844146], [-0.1473590928746317, 51.52291597589716], [-0.14716499458103166, 51.52285177812694], [-0.1469706182684928, 51.522809061872664], [-0.1467498262779585, 51.522781749726654], [-0.1465546819692198, 51.52277552017797], [-0.1463598214147128, 51.52278278022798], [-0.14591266686824866, 51.52285941153241], [-0.14570747456801908, 51.5229249426278], [-0.1455267331080152, 51.52300884078458], [-0.14541825261676425, 51.52307230400031], [-0.14525462972562617, 51.523197016831844], [-0.14513327656593397, 51.52332860185391], [-0.14505538388490397, 51.52345242262976], [-0.14501416986890267, 51.52356279923374], [-0.144991660311916, 51.5237247146544], [-0.14500638816899686, 51.52387697081377], [-0.14475923236128443, 51.523910371315935], [-0.1446697442434368, 51.52391300188561], [-0.1444916372559356, 51.52391737640036], [-0.14442231426622534, 51.523918078452674], [-0.14435800682373764, 51.523868514200565], [-0.14434920848950794, 51.523801398340176], [-0.1443189580638087, 51.52365968506938], [-0.14431630787773791, 51.523602106987596], [-0.14433867555988725, 51.52360156153563], [-0.14433509146873946, 51.52353479793112], [-0.14410918929127792, 51.523454808919055], [-0.1439728032594686, 51.52343871611164], [-0.14385505572703608, 51.52346696967074], [-0.1437173812535246, 51.52354678126951], [-0.143652847012428, 51.52357587753519], [-0.14347884200512412, 51.523651787561434], [-0.14340483186947547, 51.52368298010795], [-0.14335491276504217, 51.5237034074409], [-0.1432795690787986, 51.52373233152946], [-0.1431707925682623, 51.52377376221119], [-0.1431252989510928, 51.52378472993406], [-0.1428779244075918, 51.52380598647225], [-0.14264068073417496, 51.52382650361926], [-0.1424297162953373, 51.52383799677136], [-0.14192604429573183, 51.523941947981754], [-0.14166962524989948, 51.52400719939759], [-0.1414551310790231, 51.5240527981603], [-0.14136564255914977, 51.524055426205955], [-0.14075489449274217, 51.52418509467958], [-0.1405117258014486, 51.524245970010426], [-0.13997656270260797, 51.524361189716096], [-0.13998229919274174, 51.524372069214614], [-0.13976093089552355, 51.524417105385254], [-0.13975417898082412, 51.524404861767614], [-0.13951797118493045, 51.52445235998215], [-0.13906899182835625, 51.52454098313786], [-0.13892131430688912, 51.52457145482859], [-0.13891195939564177, 51.524556023318866], [-0.13821775309503398, 51.52469748043008], [-0.13812049977939997, 51.52468065386201], [-0.13792720721570112, 51.524398802161954], [-0.1374490498877317, 51.523717220642915], [-0.1373389028418212, 51.52355625677825], [-0.13702268714415408, 51.52369157124148], [-0.13602574535740072, 51.5240835283802], [-0.13583669212685356, 51.524175369592264], [-0.13498368234579902, 51.52451755170052], [-0.1348003356708769, 51.52459186276543], [-0.1351625416630439, 51.524922344084366], [-0.13513599518055533, 51.52493495792934], [-0.13527712293461178, 51.525064861798626], [-0.13569092784894635, 51.52545046241501], [-0.13570820621698532, 51.52544938808694], [-0.13569424276264302, 51.52549151016119], [-0.1356793777044047, 51.525485880104796], [-0.13468747833408495, 51.52582306626417], [-0.13366735418371448, 51.52617867674886], [-0.1336262724030565, 51.52617757361747], [-0.13350726212360806, 51.526218922862384], [-0.1333557935469477, 51.526260475010865], [-0.1333287392833911, 51.526276766566475], [-0.13333446906963317, 51.52629070203503], [-0.13297880159932546, 51.52641917666562], [-0.13297737849233074, 51.526416187318056], [-0.1325786491008349, 51.526557010465545], [-0.13256952306983588, 51.526544728623215], [-0.13145066349334006, 51.52694495763002], [-0.13085620515980262, 51.52715125244584], [-0.13045762892593446, 51.527290902740866], [-0.12978984582581998, 51.52751975743397], [-0.12944576705577027, 51.527649214631], [-0.1279488327249727, 51.528258427476615], [-0.12764764260192343, 51.528379483793586], [-0.12662432961974374, 51.528792609129404], [-0.12617583351324482, 51.52897199351867], [-0.125918091383783, 51.52903350506951], [-0.12496739942081955, 51.529417209727285], [-0.12458983016469309, 51.52957120017732], [-0.12414241848676832, 51.529755628348006], [-0.12354813237130505, 51.52998490439264], [-0.12355331504410308, 51.53002364526582], [-0.12297502700011638, 51.5302539827404], [-0.12300783682198449, 51.53029730136455], [-0.12300186765641472, 51.530321029440174], [-0.12290040211290956, 51.53036885189846], [-0.12276555138062634, 51.5304219845156], [-0.12267561682968926, 51.53045246082221], [-0.12248662766687157, 51.53048081249481], [-0.12235216549093764, 51.53048980819395], [-0.12217798190412273, 51.5304934936043], [-0.12208774846524081, 51.530496544913866], [-0.12200502129856568, 51.530493422278916], [-0.1219210269679996, 51.530483537444574], [-0.12177935126494824, 51.53045699641418], [-0.12170575889119625, 51.530442782464725], [-0.1216370992114705, 51.53042999544809], [-0.12156198083560447, 51.53041530824012], [-0.12148900072096983, 51.530400654318434], [-0.12141471527303531, 51.53038597945141], [-0.12134750064180533, 51.53037276666248], [-0.12129533583514797, 51.5303606940861], [-0.12125400145169664, 51.53034834526913], [-0.12119288534925866, 51.53032848728351], [-0.1211672200923159, 51.530319535001965], [-0.12114103518443908, 51.53030877764348], [-0.12112261724895004, 51.5302999414047], [-0.12110291097213527, 51.53029063579424], [-0.12105559626466253, 51.53026470562307], [-0.1210528018218472, 51.53026331286082], [-0.12101777184833706, 51.53023928712262], [-0.12100023367022533, 51.53022642001714], [-0.12095834278461305, 51.53019293463199], [-0.12080864954980115, 51.530084003797796], [-0.12077707812603822, 51.53004529067404], [-0.12076661938250476, 51.530036581854816], [-0.12073371562507901, 51.52999559919342], [-0.12069870368077865, 51.52995098655704], [-0.12059165618163395, 51.52981972335392], [-0.12056512017761763, 51.52978288847559], [-0.12053216127760173, 51.52974325288244], [-0.12049942448065924, 51.529698227888474], [-0.12046787212947163, 51.52965906444431], [-0.1204341968114561, 51.52961663049375], [-0.1203992651186373, 51.52957291832109], [-0.1203677328928272, 51.52953330553313], [-0.1203355045671928, 51.5294932328464], [-0.12030123218376262, 51.52945087921709], [-0.12022136797611864, 51.52934081898259], [-0.12019948735773728, 51.529312149372345], [-0.12017468657510724, 51.52928514069425], [-0.12007189755334889, 51.5291544847732], [-0.12008362450844419, 51.52914972845661], [-0.12006588071233296, 51.52912741822459], [-0.12007903258961923, 51.52912268473944], [-0.11997750397595995, 51.52899609385971], [-0.11996292572271659, 51.52900080537714], [-0.11992796308465835, 51.5289579010052], [-0.11989436617405416, 51.52891645734601], [-0.11985862415541944, 51.52887228237781], [-0.11982298182879866, 51.528828558632775], [-0.11978805130809345, 51.528784846282804], [-0.11971109446782982, 51.52869371073577], [-0.1196402240400557, 51.52861067442382], [-0.11960918263822488, 51.52857646403135], [-0.11958894163307775, 51.52855420362759], [-0.11919842577780337, 51.528626968045664], [-0.11896144084526776, 51.52867495186039], [-0.11895306522936076, 51.528667626080995], [-0.11892129191500019, 51.52867421915413], [-0.11891870865896989, 51.52867921187852], [-0.11888238213862933, 51.52868672024505], [-0.11887361754740676, 51.52868882791112], [-0.11888229881893411, 51.52870604792163], [-0.11883435496213114, 51.528715618201964], [-0.11881470623668478, 51.52871934900636], [-0.11864959301659193, 51.52875401068867], [-0.11862058608628609, 51.52875983869182], [-0.1185361787997162, 51.528777364567915], [-0.11844603187168257, 51.52879569671581], [-0.11836247427331441, 51.52881278735555], [-0.1182846733666985, 51.5288286204496], [-0.1182127500866257, 51.52884319961554], [-0.1181407071507528, 51.52885777668907], [-0.11807022720999459, 51.52887192915576], [-0.11799828523104973, 51.528886957397354], [-0.11792337233852512, 51.52890193792705], [-0.11785430008749896, 51.528916562484795], [-0.11778380143008359, 51.52893116411337], [-0.11771474619045356, 51.52894533922305], [-0.11750110107953053, 51.52898650223629], [-0.1174320456706524, 51.52900067717389], [-0.1173606968821498, 51.52901571453736], [-0.11729091110031352, 51.52903032730562], [-0.11723710876757763, 51.5290407011009], [-0.11717314363501685, 51.52905540722169], [-0.11702625050431785, 51.529086313510014], [-0.1169237374473917, 51.529107592202074], [-0.11685395138852828, 51.529122204701125], [-0.11678632194660586, 51.52913640214377], [-0.11672156083188719, 51.529150196859476], [-0.11663869656404487, 51.52916774581918], [-0.11656663407440215, 51.52918277123182], [-0.11649540290376945, 51.52919780904846], [-0.11641756494883343, 51.52921454018059], [-0.11633407575912644, 51.52923279740651], [-0.11627136176369317, 51.52924599525014], [-0.11619941717640318, 51.52926102232638], [-0.11612889891445181, 51.52927607226445], [-0.11605754927625986, 51.52929110880695], [-0.11600671725312975, 51.52930152973277], [-0.1160013232066407, 51.529291104144264], [-0.11593224832486601, 51.5293057275074], [-0.11567385640728936, 51.52936819433694], [-0.1156764026378639, 51.529392868152605], [-0.11565104391937502, 51.5293938097015], [-0.11567006915070796, 51.52958075064487], [-0.11566987394265593, 51.52977538456509], [-0.11567177908577848, 51.529783956473295], [-0.115671445100281, 51.52979204187576], [-0.11567054633386481, 51.52979652290835], [-0.11566795606083874, 51.529804572065615], [-0.11566164105970002, 51.529819304144226], [-0.11565504089587547, 51.52983807747488], [-0.11564041061534634, 51.52986130720446], [-0.11558588899178023, 51.52992650908447], [-0.11553096125086078, 51.52998136545993], [-0.11550013821621594, 51.53001098785478], [-0.11549644376733458, 51.53001407506044], [-0.11549201903551783, 51.53001759927115], [-0.11548674435952569, 51.53002156036292], [-0.11548233815206391, 51.53002463613318], [-0.11547848842894873, 51.53002862011747], [-0.11547629318394113, 51.53002993286063], [-0.11547408077941858, 51.53003169586424], [-0.11547188697494767, 51.530033008630454], [-0.11547038776786422, 51.530034783092105], [-0.11537161382347325, 51.530120850179394], [-0.1153454634789914, 51.53014380395048], [-0.11534252074064513, 51.53014600485407], [-0.11527443603048523, 51.530205683839526], [-0.11520648473961685, 51.53026212933901], [-0.11513549775953115, 51.53032302058609], [-0.11504726524616324, 51.53039846907779], [-0.11493881168248199, 51.530494359461954], [-0.11486108422514602, 51.53056008641214], [-0.11481624577173831, 51.5305980237667], [-0.11479084661708305, 51.53062009110229], [-0.11477925180166132, 51.53063024369963], [-0.1146398065058871, 51.53075116785661], [-0.11445752813373858, 51.53090745338231], [-0.1143876973387962, 51.530966205367726], [-0.11423042163140414, 51.531101406097406], [-0.11400542392118478, 51.53129026818452], [-0.1134232959967761, 51.531335926162335], [-0.11096227699640927, 51.531560268745075], [-0.11003015365616063, 51.53166356339309], [-0.10967490369003857, 51.531710431801194], [-0.10656104205863948, 51.53182113163964], [-0.10630558324753714, 51.531809365635475], [-0.10600218898174954, 51.53177255195002], [-0.10586414435854287, 51.53174739773279], [-0.1058048184620101, 51.53173610168819], [-0.10568818402309416, 51.531713540291676], [-0.10565437864452645, 51.53169456468452], [-0.10550074541086764, 51.53160398005715], [-0.10550365390768882, 51.53159692459454], [-0.1054834860482536, 51.53158733906567], [-0.10546716781353693, 51.53157952432538], [-0.10521011384029574, 51.53142307894118], [-0.10517011445506232, 51.531398699245855], [-0.10503400484322095, 51.53131558947539], [-0.10499620976242968, 51.5312925034137], [-0.10467474862326467, 51.53110409044213], [-0.10467551391306838, 51.53108567316098], [-0.10468712327792178, 51.53107803889366]]]}}]}